C/2018 V4 (Africano),e,69.0039,78.3791,359.9729,210.4197,0.0003229,0.98479938,0.0000,03/01.5411/2019,2000,g 12.5,4.0
# From MPC114604
P/2018 V5 (Trujillo-Sheppard),e,10.5822,171.2989,260.7413,8.955506,0.0367764,0.47447411,20.8483,04/22.0/2020,2000,g 12.5,4.0
# From MPEC 2020-H67
C/2018 W1 (Catalina),e,83.2605,233.5915,251.2590,21.79191,0.0096886,0.93756980,3.3538,04/22.0/2020,2000,g 15.7,2.0
# From MPEC 2020-H67
C/2018 W2 (Africano),h,09/05.7253/2019,116.6167,181.8528,157.9771,1.000663,1.454726,2000,9.5,4.0
# From MPC119996
C/2018 X2 (Fitzsimmons),e,23.0695,340.8289,162.0575,151.3269,0.0005295,0.98595025,0.0000,07/08.5354/2019,2000,g 12.0,4.0
# From MPC114604
C/2018 X3 (PANSTARRS),e,43.3689,78.9215,359.7923,12.39374,0.0225892,0.78230133,10.8055,04/22.0/2020,2000,g 14.5,4.0
# From MPEC 2020-H67
C/2018 Y1 (Iwamoto),e,160.4025,147.4993,358.0506,144.0918,0.0005698,0.99107248,0.0000,02/07.0373/2019,2000,g 11.5,4.0
# From MPC114605
P/2018 Y2 (Africano),e,11.6827,297.2670,162.4321,7.468395,0.0482907,0.47880356,22.9784,04/22.0/2020,2000,g 11.5,4.0
# From MPC114605
P/2019 A1 (PANSTARRS),e,13.7442,312.3016,150.8294,5.126082,0.0849231,0.56850480,47.4798,04/22.0/2020,2000,g 16.0,4.0
# From MPEC 2020-H67
P/2019 A2 (ATLAS),e,14.8595,139.4638,324.1603,5.727123,0.0719117,0.38149286,37.2473,04/22.0/2020,2000,g 10.5,4.0
# From MPC114605
P/2019 A3 (PANSTARRS),e,15.3648,31.3183,325.4759,3.147423,0.1765108,0.26524861,111.0418,04/22.0/2020,2000,g 16.0,4.0
# From MPC114605
P/2019 A4 (PANSTARRS),e,13.3206,119.3005,341.6323,2.612886,0.2333584,0.08927857,117.7510,04/22.0/2020,2000,g 15.0,4.0
# From MPC118842
C/2019 A5 (PANSTARRS),e,67.5498,146.6215,356.0204,21.62404,0.0098016,0.70755032,3.1149,04/22.0/2020,2000,g  9.5,4.0
# From MPC114605
P/2019 A6 (Lemmon-PANSTARRS),e,33.2291,280.2746,156.2550,5.366472,0.0792813,0.63891560,47.7130,04/22.0/2020,2000,g 16.0,4.0
# From MPC114605
P/2019 A7 (PANSTARRS),e,17.7743,280.5250,119.3345,3.186405,0.1732817,0.16089745,144.8064,04/22.0/2020,2000,g 13.5,4.0
# From MPC115884
P/2019 A8 (PANSTARRS),e,2.9838,127.7482,21.8858,3.365134,0.1596616,0.44181152,95.1372,04/22.0/2020,2000,g 16.0,4.0
# From MPC118842
C/2019 A9 (PANSTARRS),e,84.3386,278.3695,237.8466,39.21751,0.0040131,0.96360872,1.0852,04/22.0/2020,2000,g 15.0,4.0
# From MPC114606
C/2019 B1 (Africano),e,123.3632,290.4364,174.8674,150.4610,0.0005340,0.98938644,0.0000,03/19.8890/2019,2000,g 16.0,4.0
# From MPC115885
P/2019 B2 (Groeller),e,16.8265,176.4406,358.8164,3.855196,0.1302070,0.37302306,41.4943,04/22.0/2020,2000,g 14.5,4.0
# From MPEC 2020-H67
C/2019 B3 (PANSTARRS),h,01/19.6753/2021,66.5352,358.4188,263.8862,1.002974,6.823677,2000,5.5,4.0
# From MPEC 2020-AA5
A/2019 C1,e,36.0165,212.3971,319.1928,831.8873,0.0000411,0.99208882,0.0000,05/05.7568/2020,2000,g 10.0,4.0
# From MPEC 2020-H67
C/2019 C1 (ATLAS),e,36.0165,212.3971,319.1889,826.6228,0.0000415,0.99203834,0.0000,05/05.7133/2020,2000,g 10.0,4.0
# From MPEC 2020-H67
C/2019 D1 (Flewelling),e,34.0950,231.7197,70.4914,139.2556,0.0005998,0.98866935,0.0000,05/11.8618/2019,2000,g 13.0,4.0
# From MPEC 2020-H67
C/2019 E3 (ATLAS),h,11/11.7562/2023,84.2806,347.2246,280.5892,1.004855,10.315896,2000,2.5,4.0
# From MPEC 2020-H67
C/2019 F1 (ATLAS-Africano),h,06/22.7603/2021,54.1742,38.7258,251.1031,1.003389,3.596295,2000,5.5,4.0
# From MPEC 2020-H67
C/2019 F2 (ATLAS),e,19.1873,175.8541,10.9954,16.58554,0.0145918,0.86535470,3.2982,04/22.0/2020,2000,g 12.0,4.0
# From MPEC 2020-H67
A/2019 G2,e,159.2112,208.1468,82.6522,723.5074,0.0000506,0.99683303,0.0000,12/10.0560/2019,2000,g 16.5,2.0
# From MPEC 2020-H67
A/2019 G4,h,09/15.7733/2018,138.3836,130.4656,287.8776,1.000787,5.858737,2000,13.0,2.0
# From MPC114607
P/2019 GG21 (PANSTARRS),e,6.0838,340.5984,208.3642,7.466791,0.0483062,0.47292070,16.8007,04/22.0/2020,2000,g 12.0,4.0
# From MPC115885
C/2019 H1 (NEOWISE),e,104.5790,269.1859,19.2918,227.7385,0.0002868,0.99189816,0.0000,04/27.7419/2019,2000,g 15.5,4.0
# From MPC118842
C/2019 J1 (Lemmon),e,24.5505,98.0877,167.7764,70.14370,0.0016777,0.96466436,0.6354,04/22.0/2020,2000,g 12.0,4.0
# From MPC115885
C/2019 J2 (Palomar),e,105.1355,25.4713,98.7082,685.7117,0.0000549,0.99748141,0.0000,07/19.7192/2019,2000,g 13.0,4.0
# From MPEC 2020-H67
C/2019 J3 (ATLAS),e,131.4140,270.5175,16.5502,67337,0.0000001,0.99996475,0.0000,08/01.8727/2019,2000,g 13.5,4.0
# From MPC117071
C/2019 JU6 (ATLAS),e,148.2934,21.7366,94.8713,328.3542,0.0001656,0.99377203,0.0000,05/31.8606/2019,2000,g 14.5,4.0
# From MPEC 2020-H67
C/2019 K1 (ATLAS),e,87.1488,73.3749,265.7087,9824,0.0000010,0.99979513,0.0000,02/12.9676/2020,2000,g 10.0,4.0
# From MPC119997
C/2019 K4 (Ye),e,105.3037,180.1652,139.7741,1972,0.0000113,0.99885426,0.0000,06/16.4070/2019,2000,g 12.5,4.0
# From MPEC 2020-H67
C/2019 K5 (Young),e,15.3146,177.1816,174.9310,153.6664,0.0005174,0.98675625,0.0000,06/22.7792/2019,2000,g 13.0,4.0
# From MPC117071
A/2019 K6,e,132.3735,42.9399,187.6122,1513,0.0000167,0.99740404,0.0000,05/20.1530/2020,2000,g 13.6,2.0
# From MPC118095
C/2019 K7 (Smith),h,06/16.8773/2020,103.5249,307.9215,27.2883,1.001822,4.474941,2000,6.2,4.0
# From MPEC 2020-H67
C/2019 K8 (ATLAS),e,93.2231,291.0445,85.3632,1722,0.0000138,0.99814485,0.0000,07/21.2760/2019,2000,g 11.5,4.0
# From MPC118095
C/2019 L1 (PANSTARRS),e,9.9934,254.4072,49.9298,9.832795,0.0319660,0.70604975,8.1418,04/22.0/2020,2000,g 13.5,4.0
# From MPC115886
C/2019 L2 (NEOWISE),e,152.1799,12.5847,18.7471,24.92783,0.0079191,0.93502274,3.0574,04/22.0/2020,2000,g 16.0,4.0
# From MPEC 2020-H67
C/2019 L3 (ATLAS),h,01/09.9187/2022,48.3664,290.7846,171.6660,1.000375,3.553204,2000,4.5,4.0
# From MPC118095
C/2019 LB7 (Kleyna),e,164.2417,3.3425,336.0141,35.37522,0.0046844,0.92976730,1.8344,04/22.0/2020,2000,g 17.0,4.0
# From MPC118843
P/2019 M2 (ATLAS),e,12.2819,307.5992,332.5372,3.025728,0.1872662,0.64847594,56.9910,04/22.0/2020,2000,g 21.2,4.0
# From MPC118095
C/2019 M3 (ATLAS),h,01/03.0036/2019,99.4420,154.8957,87.9428,1.001942,2.418351,2000,12.2,4.0
# From MPEC 2020-H67
C/2019 N1 (ATLAS),e,82.4248,13.5769,193.4435,23595,0.0000003,0.99992775,0.0000,12/01.7948/2020,2000,g  7.5,4.0
# From MPEC 2020-H67
A/2019 O2,e,93.2865,48.3406,129.6439,57.52729,0.0022589,0.83167733,357.5601,04/22.0/2020,2000,g  9.5,2.0
# From MPEC 2020-H67
A/2019 O3,h,03/06.9045/2021,89.8155,300.3809,59.9894,1.001320,8.820444,2000,10.0,2.0
# From MPEC 2020-H67
A/2019 O4,e,115.0855,354.9202,61.8093,32.88034,0.0052276,0.88915927,0.3767,04/22.0/2020,2000,g 15.5,2.0
# From MPEC 2020-AA5
A/2019 Q1,h,07/19.7567/2020,155.7200,42.3366,55.9277,1.000435,4.996704,2000,12.5,2.0
# From MPC117072
A/2019 Q2,e,159.0246,188.0089,176.2998,58.17162,0.0022215,0.97838500,0.0000,07/22.3808/2019,2000,g 18.0,2.0
# From MPC117072
C/2019 Q3 (PANSTARRS),h,08/21.0133/2018,65.5307,151.3250,152.6446,1.004559,7.251044,2000,8.5,4.0
# From MPC117072
P/2019 S2 (PANSTARRS),e,10.4732,93.1262,216.7507,4.734444,0.0956755,0.20679174,40.7686,04/22.0/2020,2000,g 13.5,4.0
# From MPC118096
P/2019 S3 (PANSTARRS),e,8.6926,150.1656,212.9652,3.413979,0.1562474,0.47076232,37.4799,04/22.0/2020,2000,g 18.3,4.0
# From MPEC 2020-H67
C/2019 S4 (Lemmon),e,92.0247,63.1687,71.3558,240.7361,0.0002639,0.98570341,0.0000,04/07.9434/2020,2000,g 11.5,4.0
# From MPC118843
A/2019 T1,e,120.8685,6.9493,90.9988,38.21800,0.0041716,0.88795945,358.8858,04/22.0/2020,2000,g 13.0,2.0
# From MPEC 2020-AA5
A/2019 T2,e,111.4653,155.6392,239.3940,1956,0.0000114,0.99864721,0.0000,04/22.3161/2021,2000,g 12.5,2.0
# From MPEC 2020-H67
C/2019 T3 (ATLAS),e,121.8625,139.5150,112.2516,7793,0.0000014,0.99923689,0.0000,03/02.4335/2021,2000,g  6.8,4.0
# From MPEC 2020-H67
C/2019 T4 (ATLAS),e,53.6163,199.9762,351.2096,1064,0.0000284,0.99601274,0.0000,06/09.2609/2022,2000,g  5.0,4.0
# From MPEC 2020-H67
P/2019 T5 (ATLAS),e,33.4224,247.6943,189.6099,8.009723,0.0434788,0.80913639,11.5163,04/22.0/2020,2000,g 15.0,4.0
# From MPEC 2020-H67
P/2019 T6 (PANSTARRS),e,18.6966,71.3108,328.9095,5.433119,0.0778270,0.62233501,12.9378,04/22.0/2020,2000,g 15.5,4.0
# From MPC118096
P/2019 U4 (PANSTARRS),e,11.6906,200.0355,180.9581,3.520101,0.1492352,0.47529762,32.3312,04/22.0/2020,2000,g 19.0,4.0
# From MPEC 2020-H67
A/2019 U5,h,03/30.3358/2023,113.5199,2.6742,181.6022,1.000222,3.621445,2000,10.0,2.0
# From MPEC 2020-H67
C/2019 U6 (Lemmon),e,61.0017,235.7061,329.6604,431.9038,0.0001098,0.99788322,0.0000,06/18.8233/2020,2000,g 11.5,4.0
# From MPEC 2020-H67
C/2019 V1 (Borisov),e,61.8661,83.2063,51.2016,2803,0.0000066,0.99889522,0.0000,07/16.5765/2020,2000,g 11.0,4.0
# From MPEC 2020-H67
P/2019 V2 (Groeller),e,11.8002,189.1878,336.0702,7.522440,0.0477712,0.33261451,351.3314,04/22.0/2020,2000,g 10.0,4.0
# From MPC119998
P/2019 W1 (PANSTARRS),e,23.4602,35.4185,18.7301,4.550512,0.1015345,0.26610473,35.5496,04/22.0/2020,2000,g 12.9,4.0
# From MPEC 2020-H67
P/2019 X1 (Pruyne),e,10.2452,43.7180,36.8572,6.174122,0.0642453,0.30268329,17.6827,04/22.0/2020,2000,g 10.4,4.0
# From MPEC 2020-H67
C/2019 Y1 (ATLAS),e,73.3467,31.3679,57.5039,226.4829,0.0002892,0.99630101,0.0000,03/15.5651/2020,2000,g 13.7,4.0
# From MPEC 2020-H67
P/2019 Y2 (Fuls),e,4.8962,80.8355,92.3444,3.454160,0.1535290,0.38484487,12.4610,04/22.0/2020,2000,g 13.2,4.0
# From MPEC 2020-C98
P/2019 Y3 (Catalina),e,24.6353,139.3812,2.2743,2.998147,0.1898562,0.69579088,24.7834,04/22.0/2020,2000,g 18.5,4.0
# From MPEC 2020-H67
C/2019 Y4 (ATLAS),e,45.3845,120.5728,177.4202,325.3678,0.0001679,0.99922304,0.0000,05/31.0233/2020,2000,g 11.8,6.0
# From MPEC 2020-H67
C/2019 Y4-A (ATLAS),h,05/31.0451/2020,46.1109,121.1324,177.1273,1.003164,0.249836,2000,11.9,6.0
# From MPEC 2020-H67
C/2019 Y4-B (ATLAS),e,45.1891,120.4363,177.4844,123.0527,0.0007220,0.99793833,0.0000,05/31.0165/2020,2000,g 12.1,6.0
# From MPEC 2020-H67
C/2019 Y4-C (ATLAS),e,43.4123,119.3410,178.2937,14.94659,0.0170565,0.98249865,0.0000,05/31.0718/2020,2000,g 12.3,6.0
# From MPEC 2020-H67
C/2019 Y4-D (ATLAS),e,46.3080,121.5849,177.1796,292.7089,0.0001968,0.99915044,0.0000,05/31.1468/2020,2000,g 13.8,6.0
# From MPEC 2020-H67
